NORAD_CAT_ID,OBJECT_NAME,OBJECT_TYPE,EPOCH,MEAN_MOTION,ECCENTRICITY,INCLINATION,RA_OF_ASC_NODE,ARG_OF_PERICENTER,MEAN_ANOMALY,BSTAR,MEAN_MOTION_DOT,MEAN_MOTION_DDOT,TLE_LINE0,TLE_LINE1,TLE_LINE2,SEMIMAJOR_AXIS,PERIOD,APOGEE,PERIGEE,DECAYED
49442.0,STARLINK-3098,PAYLOAD,2023-04-27 11:52:51,15.08860887,0.0001483,53.2147,230.1567,61.8525,298.2617,0.0010989,0.00017254,0.0,0 STARLINK-3098,1 49442U 21104AL  23117.49503864  .00017254  00000-0  10989-2 0  9992,2 49442  53.2147 230.1567 0001483  61.8525 298.2617 15.08860887 80828,6917.817,95.436,540.707,538.656,0.0
49442.0,STARLINK-3098,PAYLOAD,2023-04-27 18:14:23,15.0887689,0.0001501,53.2144,228.967,60.6534,299.4607,0.0014206,0.00022416,0.0,0 STARLINK-3098,1 49442U 21104AL  23117.75999294  .00022416  00000-0  14206-2 0  9999,2 49442  53.2144 228.9670 0001501  60.6534 299.4607 15.08876890 81940,6917.768,95.435,540.671,538.594,0.0
49442.0,STARLINK-3098,PAYLOAD,2023-04-28 00:35:56,15.08850568,0.0001045,53.2143,227.7781,57.2942,302.8151,0.00037538,5.693e-05,0.0,0 STARLINK-3098,1 49442U 21104AL  23118.02495479  .00005693  00000-0  37538-3 0  9998,2 49442  53.2143 227.7781 0001045  57.2942 302.8151 15.08850568 81988,6917.848,95.437,540.436,538.99,0.0
49442.0,STARLINK-3098,PAYLOAD,2023-04-28 13:19:01,15.08844584,0.0001264,53.2138,225.3981,72.0811,288.0319,0.00033241,5.007e-05,0.0,0 STARLINK-3098,1 49442U 21104AL  23118.55487715  .00005007  00000-0  33241-3 0  9996,2 49442  53.2138 225.3981 0001264  72.0811 288.0319 15.08844584 82063,6917.866,95.437,540.606,538.857,0.0
49442.0,STARLINK-3098,PAYLOAD,2023-04-29 11:34:25,15.08850009,0.0001489,53.2138,221.2353,68.6614,291.4537,0.0005564,8.581e-05,0.0,0 STARLINK-3098,1 49442U 21104AL  23119.48223830  .00008581  00000-0  55640-3 0  9992,2 49442  53.2138 221.2353 0001489  68.6614 291.4537 15.08850009 81127,6917.85,95.437,540.745,538.685,0.0
49442.0,STARLINK-3098,PAYLOAD,2023-04-29 16:20:34,15.08857474,0.0001522,53.2136,220.3431,69.0813,291.0342,0.00079817,0.00012444,0.0,0 STARLINK-3098,1 49442U 21104AL  23119.68095621  .00012444  00000-0  79817-3 0  9994,2 49442  53.2136 220.3431 0001522  69.0813 291.0342 15.08857474 82232,6917.827,95.436,540.745,538.639,0.0
49442.0,STARLINK-3098,PAYLOAD,2023-04-30 13:00:35,15.08848378,0.0001285,53.2146,216.4767,75.3399,284.7736,0.00027793,4.139e-05,0.0,0 STARLINK-3098,1 49442U 21104AL  23120.54207554  .00004139  00000-0  27793-3 0  9999,2 49442  53.2146 216.4767 0001285  75.3399 284.7736 15.08848378 82369,6917.855,95.437,540.609,538.831,0.0
49442.0,STARLINK-3098,PAYLOAD,2023-05-01 12:51:22,15.08837744,0.0001267,53.2157,212.0156,92.3579,267.7558,0.00058155,8.979e-05,0.0,0 STARLINK-3098,1 49442U 21104AL  23121.53567948  .00008979  00000-0  58155-3 0  9997,2 49442  53.2157 212.0156 0001267  92.3579 267.7558 15.08837744 82519,6917.887,95.438,540.629,538.876,0.0
49442.0,STARLINK-3098,PAYLOAD,2023-05-01 16:02:08,15.0884278,0.0001172,53.2159,211.4212,92.1846,267.928,0.00068394,0.00010615,0.0,0 STARLINK-3098,1 49442U 21104AL  23121.66815899  .00010615  00000-0  68394-3 0  9998,2 49442  53.2159 211.4212 0001172  92.1846 267.9280 15.08842780 81459,6917.872,95.437,540.548,538.926,0.0
49442.0,STARLINK-3098,PAYLOAD,2023-05-02 12:42:09,15.08853913,0.0001217,53.2161,207.5573,83.5564,276.5567,0.00062368,9.656e-05,0.0,0 STARLINK-3098,1 49442U 21104AL  23122.52927652  .00009656  00000-0  62368-3 0  9993,2 49442  53.2161 207.5573 0001217  83.5564 276.5567 15.08853913 81587,6917.838,95.437,540.545,538.861,0.0
49442.0,STARLINK-3098,PAYLOAD,2023-05-02 14:17:32,15.08857365,0.0001219,53.2162,207.26,82.6217,277.4913,0.00070237,0.00010913,0.0,0 STARLINK-3098,1 49442U 21104AL  23122.59551541  .00010913  00000-0  70237-3 0  9992,2 49442  53.2162 207.2600 0001219  82.6217 277.4913 15.08857365 82674,6917.827,95.436,540.536,538.849,0.0
49442.0,STARLINK-3098,PAYLOAD,2023-05-02 22:14:28,15.0884739,8.29e-05,53.2158,205.7705,97.1554,262.9532,0.0002655,3.941e-05,0.0,0 STARLINK-3098,1 49442U 21104AL  23122.92671451  .00003941  00000-0  26550-3 0  9994,2 49442  53.2158 205.7705 0000829  97.1554 262.9532 15.08847390 82728,6917.858,95.437,540.296,539.149,0.0
49442.0,STARLINK-3098,PAYLOAD,2023-05-03 12:32:56,15.08839164,0.0001308,53.2169,203.0982,108.3057,251.8077,2.7269e-05,1.46e-06,0.0,0 STARLINK-3098,1 49442U 21104AL  23123.52287849  .00000146  00000-0  27269-4 0  9998,2 49442  53.2169 203.0982 0001308 108.3057 251.8077 15.08839164 82815,6917.883,95.438,540.653,538.843,0.0
49442.0,STARLINK-3098,PAYLOAD,2023-05-04 12:23:43,15.08844379,0.0001235,53.2166,198.6365,109.066,251.0466,0.00013609,1.879e-05,0.0,0 STARLINK-3098,1 49442U 21104AL  23124.51647784  .00001879  00000-0  13609-3 0  9992,2 49442  53.2166 198.6365 0001235 109.0660 251.0466 15.08844379 81887,6917.867,95.437,540.586,538.878,0.0
49442.0,STARLINK-3098,PAYLOAD,2023-05-04 13:59:06,15.0884448,0.0001204,53.2165,198.3388,105.0678,255.0448,0.00014505,2.022e-05,0.0,0 STARLINK-3098,1 49442U 21104AL  23124.58271795  .00002022  00000-0  14505-3 0  9991,2 49442  53.2165 198.3388 0001204 105.0678 255.0448 15.08844480 82977,6917.867,95.437,540.565,538.899,0.0
49442.0,STARLINK-3098,PAYLOAD,2023-05-05 09:03:45,15.08834898,0.000121,53.2168,194.7703,90.0196,270.0935,0.00011685,1.572e-05,0.0,0 STARLINK-3098,1 49442U 21104AL  23125.37760609  .00001572  00000-0  11685-3 0  9991,2 49442  53.2168 194.7703 0001210  90.0196 270.0935 15.08834898 83090,6917.896,95.438,540.598,538.924,0.0
49442.0,STARLINK-3098,PAYLOAD,2023-05-05 12:14:31,15.08839577,0.0001185,53.2157,194.1744,109.8152,250.2968,0.00012324,1.674e-05,0.0,0 STARLINK-3098,1 49442U 21104AL  23125.51008235  .00001674  00000-0  12324-3 0  9991,2 49442  53.2157 194.1744 0001185 109.8152 250.2968 15.08839577 82037,6917.882,95.438,540.566,538.927,0.0
49442.0,STARLINK-3098,PAYLOAD,2023-05-05 23:22:13,15.08837713,0.0001128,53.2147,192.093,80.4075,279.7045,0.00010278,1.348e-05,0.0,0 STARLINK-3098,1 49442U 21104AL  23125.97376681  .00001348  00000-0  10278-3 0  9998,2 49442  53.2147 192.0930 0001128  80.4075 279.7045 15.08837713 82105,6917.887,95.438,540.533,538.972,0.0
49442.0,STARLINK-3098,PAYLOAD,2023-05-07 03:59:09,15.0885024,0.0001417,53.2143,186.7393,97.6168,262.4985,0.00036375,5.507e-05,0.0,0 STARLINK-3098,1 49442U 21104AL  23127.16608227  .00005507  00000-0  36375-3 0  9992,2 49442  53.2143 186.7393 0001417  97.6168 262.4985 15.08850240 83369,6917.849,95.437,540.694,538.734,0.0
49442.0,STARLINK-3098,PAYLOAD,2023-05-07 10:20:41,15.08860406,0.0001232,53.2141,185.5511,75.2828,284.8301,0.00048996,7.523e-05,0.0,0 STARLINK-3098,1 49442U 21104AL  23127.43103808  .00007523  00000-0  48996-3 0  9999,2 49442  53.2141 185.5511 0001232  75.2828 284.8301 15.08860406 82326,6917.818,95.436,540.535,538.831,0.0
49442.0,STARLINK-3098,PAYLOAD,2023-05-08 10:11:29,15.08840401,0.000117,53.2141,181.0912,84.0308,276.0818,4.8711e-05,4.87e-06,0.0,0 STARLINK-3098,1 49442U 21104AL  23128.42464319  .00000487  00000-0  48711-4 0  9994,2 49442  53.2141 181.0912 0001170  84.0308 276.0818 15.08840401 83559,6917.879,95.438,540.554,538.935,0.0
49442.0,STARLINK-3098,PAYLOAD,2023-05-09 10:02:16,15.0884351,0.0001222,53.2142,176.6291,90.0655,270.0478,0.00027394,4.075e-05,0.0,0 STARLINK-3098,1 49442U 21104AL  23129.41824518  .00004075  00000-0  27394-3 0  9995,2 49442  53.2142 176.6291 0001222  90.0655 270.0478 15.08843510 82627,6917.87,95.437,540.58,538.889,0.0
49442.0,STARLINK-3098,PAYLOAD,2023-05-10 11:28:25,15.08876697,0.0001259,53.2146,171.875,90.3312,269.7824,0.00075432,0.00011749,0.0,0 STARLINK-3098,1 49442U 21104AL  23130.47806781  .00011749  00000-0  75432-3 0  9997,2 49442  53.2146 171.8750 0001259  90.3312 269.7824 15.08876697 82780,6917.768,95.435,540.504,538.762,0.0
49442.0,STARLINK-3098,PAYLOAD,2023-05-10 19:25:20,15.08856455,5.29e-05,53.2147,170.389,140.2965,219.8066,-0.00017226,-3.029e-05,0.0,0 STARLINK-3098,1 49442U 21104AL  23130.80926404 -.00003029  00000-0 -17226-3 0  9990,2 49442  53.2147 170.3890 0000529 140.2965 219.8066 15.08856455 83918,6917.83,95.437,540.061,539.329,0.0
49442.0,STARLINK-3098,PAYLOAD,2023-05-11 08:08:26,15.08830845,0.0001717,53.2152,168.0147,119.19,240.9264,-0.00024801,-4.232e-05,0.0,0 STARLINK-3098,1 49442U 21104AL  23131.33919500 -.00004232  00000-0 -24801-3 0  9992,2 49442  53.2152 168.0147 0001717 119.1900 240.9264 15.08830845 82916,6917.908,95.438,540.961,538.586,0.0
49442.0,STARLINK-3098,PAYLOAD,2023-05-11 19:16:09,15.08823108,0.0001489,53.2144,165.9267,93.145,266.9713,0.00029182,4.357e-05,0.0,0 STARLINK-3098,1 49442U 21104AL  23131.80288363  .00004357  00000-0  29182-3 0  9993,2 49442  53.2144 165.9267 0001489  93.1450 266.9713 15.08823108 84062,6917.932,95.439,540.827,538.767,0.0
49442.0,STARLINK-3098,PAYLOAD,2023-05-11 22:26:55,15.08827908,0.0001519,53.2141,165.3305,88.1942,271.9224,0.00010841,1.437e-05,0.0,0 STARLINK-3098,1 49442U 21104AL  23131.93536420  .00001437  00000-0  10841-3 0  9995,2 49442  53.2141 165.3305 0001519  88.1942 271.9224 15.08827908 83008,6917.917,95.438,540.833,538.732,0.0
49442.0,STARLINK-3098,PAYLOAD,2023-05-12 07:59:14,15.08824171,0.0001512,53.2146,163.5472,91.5064,268.6101,0.00030482,4.565e-05,0.0,0 STARLINK-3098,1 49442U 21104AL  23132.33281070  .00004565  00000-0  30482-3 0  9996,2 49442  53.2146 163.5472 0001512  91.5064 268.6101 15.08824171 83066,6917.929,95.439,540.84,538.748,0.0
49442.0,STARLINK-3098,PAYLOAD,2023-05-12 22:17:43,15.08839235,0.0001539,53.2145,160.8704,87.7431,272.3738,0.00052201,8.029e-05,0.0,0 STARLINK-3098,1 49442U 21104AL  23132.92897248  .00008029  00000-0  52201-3 0  9993,2 49442  53.2145 160.8704 0001539  87.7431 272.3738 15.08839235 84232,6917.883,95.438,540.812,538.683,0.0
49442.0,STARLINK-3098,PAYLOAD,2023-05-13 09:25:25,15.0884534,0.0001503,53.2145,158.7888,88.2788,271.8377,0.000571,8.812e-05,0.0,0 STARLINK-3098,1 49442U 21104AL  23133.39265230  .00008812  00000-0  57100-3 0  9998,2 49442  53.2145 158.7888 0001503  88.2788 271.8377 15.08845340 83228,6917.864,95.437,540.769,538.689,0.0
